start=new Date('2022-03-17T00:00:00.000Z').valueOf();
sats=[{"CENTER_NAME":"EARTH","ELEMENT_SET_NO":"999","EPHEMERIS_TYPE":"0","APOAPSIS":"548.599","GP_ID":"198887702","BSTAR":"0.00000868420000","FILE":"3361689","SITE":"AFETR","RA_OF_ASC_NODE":"84.6853","INCLINATION":"53.0547","NORAD_CAT_ID":"45710","MEAN_ANOMALY":"315.0367","LAUNCH_DATE":"2020-06-04","PERIOD":"95.594","DECAY_DATE":null,"REV_AT_EPOCH":"9997","RCS_SIZE":"LARGE","MEAN_MOTION":"15.06374935","CLASSIFICATION_TYPE":"U","TLE_LINE1":"1 45710U 20035BF  22075.50883584 -.00000152  00000-0  86842-5 0  9996","REF_FRAME":"TEME","MEAN_ELEMENT_THEORY":"SGP4","MEAN_MOTION_DDOT":"0.0000000000000","PERIAPSIS":"545.981","EPOCH":"2022-03-16T12:12:43.416576","OBJECT_TYPE":"PAYLOAD","OBJECT_NAME":"STARLINK-1423","COUNTRY_CODE":"US","TLE_LINE2":"2 45710  53.0547  84.6853 0001890  45.0775 315.0367 15.06374935 99975","OBJECT_ID":"2020-035BF","TIME_SYSTEM":"UTC","ARG_OF_PERICENTER":"45.0775","ECCENTRICITY":"0.00018900","MEAN_MOTION_DOT":"-0.00000152","SEMIMAJOR_AXIS":"6925.425"},{"CENTER_NAME":"EARTH","EPHEMERIS_TYPE":"0","ELEMENT_SET_NO":"999","FILE":"3362094","BSTAR":"0.00005618300000","GP_ID":"198920345","APOAPSIS":"548.616","NORAD_CAT_ID":"45711","INCLINATION":"53.0541","RA_OF_ASC_NODE":"83.5817","SITE":"AFETR","DECAY_DATE":null,"LAUNCH_DATE":"2020-06-04","PERIOD":"95.593","MEAN_ANOMALY":"304.5640","REV_AT_EPOCH":"10000","RCS_SIZE":"LARGE","REF_FRAME":"TEME","CLASSIFICATION_TYPE":"U","TLE_LINE1":"1 45711U 20035BG  22075.75581096  .00000555  00000-0  56183-4 0  9997","MEAN_MOTION":"15.06383093","EPOCH":"2022-03-16T18:08:22.066944","PERIAPSIS":"545.915","MEAN_MOTION_DDOT":"0.0000000000000","MEAN_ELEMENT_THEORY":"SGP4","TLE_LINE2":"2 45711  53.0541  83.5817 0001950  55.5533 304.5640 15.06383093100002","COUNTRY_CODE":"US","OBJECT_TYPE":"PAYLOAD","OBJECT_NAME":"STARLINK-1433","OBJECT_ID":"2020-035BG","MEAN_MOTION_DOT":"0.00000555","ARG_OF_PERICENTER":"55.5533","ECCENTRICITY":"0.00019500","TIME_SYSTEM":"UTC","SEMIMAJOR_AXIS":"6925.400"},{"RCS_SIZE":"LARGE","REV_AT_EPOCH":"10001","DECAY_DATE":null,"MEAN_ANOMALY":"301.0504","PERIOD":"95.594","LAUNCH_DATE":"2020-06-04","NORAD_CAT_ID":"45712","INCLINATION":"53.0549","SITE":"AFETR","RA_OF_ASC_NODE":"83.6045","GP_ID":"198920007","FILE":"3362094","BSTAR":"-0.00024242000000","APOAPSIS":"548.427","ELEMENT_SET_NO":"999","EPHEMERIS_TYPE":"0","CENTER_NAME":"EARTH","SEMIMAJOR_AXIS":"6925.439","ARG_OF_PERICENTER":"59.0644","TIME_SYSTEM":"UTC","ECCENTRICITY":"0.00016220","MEAN_MOTION_DOT":"-0.00003888","OBJECT_ID":"2020-035BH","COUNTRY_CODE":"US","TLE_LINE2":"2 45712  53.0549  83.6045 0001622  59.0644 301.0504 15.06370554100013","OBJECT_TYPE":"PAYLOAD","OBJECT_NAME":"STARLINK-1434","PERIAPSIS":"546.181","EPOCH":"2022-03-16T18:03:02.961504","MEAN_MOTION_DDOT":"0.0000000000000","MEAN_ELEMENT_THEORY":"SGP4","CLASSIFICATION_TYPE":"U","TLE_LINE1":"1 45712U 20035BH  22075.75211761 -.00003888  00000-0 -24242-3 0  9991","REF_FRAME":"TEME","MEAN_MOTION":"15.06370554"},{"RA_OF_ASC_NODE":"104.9931","SITE":"AFETR","NORAD_CAT_ID":"45713","INCLINATION":"53.0534","LAUNCH_DATE":"2020-06-04","PERIOD":"95.594","MEAN_ANOMALY":"303.5933","DECAY_DATE":null,"REV_AT_EPOCH":"9967","RCS_SIZE":"LARGE","CENTER_NAME":"EARTH","EPHEMERIS_TYPE":"0","ELEMENT_SET_NO":"999","APOAPSIS":"548.522","BSTAR":"-0.00003225900000","FILE":"3361689","GP_ID":"198887453","OBJECT_ID":"2020-035BJ","MEAN_MOTION_DOT":"-0.00000762","ARG_OF_PERICENTER":"56.5223","TIME_SYSTEM":"UTC","ECCENTRICITY":"0.00017540","SEMIMAJOR_AXIS":"6925.442","MEAN_MOTION":"15.06369564","REF_FRAME":"TEME","CLASSIFICATION_TYPE":"U","TLE_LINE1":"1 45713U 20035BJ  22075.44065802 -.00000762  00000-0 -32259-4 0  9997","MEAN_MOTION_DDOT":"0.0000000000000","MEAN_ELEMENT_THEORY":"SGP4","EPOCH":"2022-03-16T10:34:32.852928","PERIAPSIS":"546.092","OBJECT_TYPE":"PAYLOAD","OBJECT_NAME":"STARLINK-1436","TLE_LINE2":"2 45713  53.0534 104.9931 0001754  56.5223 303.5933 15.06369564 99671","COUNTRY_CODE":"US"},{"RCS_SIZE":"LARGE","REV_AT_EPOCH":"9995","MEAN_ANOMALY":"302.9699","PERIOD":"95.594","LAUNCH_DATE":"2020-06-04","DECAY_DATE":null,"SITE":"AFETR","RA_OF_ASC_NODE":"85.3377","INCLINATION":"53.0534","NORAD_CAT_ID":"45714","APOAPSIS":"548.548","GP_ID":"198887203","FILE":"3361689","BSTAR":"-0.00051243000000","ELEMENT_SET_NO":"999","EPHEMERIS_TYPE":"0","CENTER_NAME":"EARTH","SEMIMAJOR_AXIS":"6925.448","ECCENTRICITY":"0.00017830","ARG_OF_PERICENTER":"57.1461","TIME_SYSTEM":"UTC","MEAN_MOTION_DOT":"-0.00007899","OBJECT_ID":"2020-035BK","OBJECT_NAME":"STARLINK-1437","OBJECT_TYPE":"PAYLOAD","COUNTRY_CODE":"US","TLE_LINE2":"2 45714  53.0534  85.3377 0001783  57.1461 302.9699 15.06367525 99959","MEAN_MOTION_DDOT":"0.0000000000000","MEAN_ELEMENT_THEORY":"SGP4","PERIAPSIS":"546.078","EPOCH":"2022-03-16T08:45:43.007904","MEAN_MOTION":"15.06367525","TLE_LINE1":"1 45714U 20035BK  22075.36508111 -.00007899  00000-0 -51243-3 0  9995","CLASSIFICATION_TYPE":"U","REF_FRAME":"TEME"},{"OBJECT_NAME":"STARLINK-1461","OBJECT_TYPE":"PAYLOAD","COUNTRY_CODE":"US","TLE_LINE2":"2 45730  53.0560 283.4945 0001636  68.7204 291.3959 15.06391035 97061","MEAN_ELEMENT_THEORY":"SGP4","MEAN_MOTION_DDOT":"0.0000000000000","PERIAPSIS":"546.108","EPOCH":"2022-03-16T18:34:52.652928","MEAN_MOTION":"15.06391035","CLASSIFICATION_TYPE":"U","TLE_LINE1":"1 45730U 20038A   22075.77422052 -.00000844  00000-0 -37803-4 0  9990","REF_FRAME":"TEME","SEMIMAJOR_AXIS":"6925.376","ARG_OF_PERICENTER":"68.7204","TIME_SYSTEM":"UTC","ECCENTRICITY":"0.00016360","MEAN_MOTION_DOT":"-0.00000844","OBJECT_ID":"2020-038A","APOAPSIS":"548.374","GP_ID":"198920346","FILE":"3362094","BSTAR":"-0.00003780300000","EPHEMERIS_TYPE":"0","ELEMENT_SET_NO":"999","CENTER_NAME":"EARTH","RCS_SIZE":"LARGE","REV_AT_EPOCH":"9706","MEAN_ANOMALY":"291.3959","PERIOD":"95.593","LAUNCH_DATE":"2020-06-13","DECAY_DATE":null,"SITE":"AFETR","RA_OF_ASC_NODE":"283.4945","INCLINATION":"53.0560","NORAD_CAT_ID":"45730"},{"OBJECT_ID":"2020-038B","TIME_SYSTEM":"UTC","ARG_OF_PERICENTER":"80.9562","ECCENTRICITY":"0.00014940","MEAN_MOTION_DOT":"-0.00004150","SEMIMAJOR_AXIS":"6925.447","TLE_LINE1":"1 45731U 20038B   22075.72262396 -.00004150  00000-0 -26012-3 0  9992","CLASSIFICATION_TYPE":"U","REF_FRAME":"TEME","MEAN_MOTION":"15.06367945","PERIAPSIS":"546.277","EPOCH":"2022-03-16T17:20:34.710144","MEAN_MOTION_DDOT":"0.0000000000000","MEAN_ELEMENT_THEORY":"SGP4","COUNTRY_CODE":"US","TLE_LINE2":"2 45731  53.0525 283.7329 0001494  80.9562 279.1596 15.06367945 97049","OBJECT_TYPE":"PAYLOAD","OBJECT_NAME":"STARLINK-1465","NORAD_CAT_ID":"45731","INCLINATION":"53.0525","SITE":"AFETR","RA_OF_ASC_NODE":"283.7329","DECAY_DATE":null,"MEAN_ANOMALY":"279.1596","PERIOD":"95.594","LAUNCH_DATE":"2020-06-13","REV_AT_EPOCH":"9704","RCS_SIZE":"LARGE","CENTER_NAME":"EARTH","ELEMENT_SET_NO":"999","EPHEMERIS_TYPE":"0","GP_ID":"198920008","BSTAR":"-0.00026012000000","FILE":"3362094","APOAPSIS":"548.346"},{"REV_AT_EPOCH":"9705","RCS_SIZE":"LARGE","NORAD_CAT_ID":"45732","INCLINATION":"53.0547","SITE":"AFETR","RA_OF_ASC_NODE":"283.4809","DECAY_DATE":null,"MEAN_ANOMALY":"306.6531","LAUNCH_DATE":"2020-06-13","PERIOD":"95.595","ELEMENT_SET_NO":"999","EPHEMERIS_TYPE":"0","GP_ID":"198918859","FILE":"3362094","BSTAR":"-0.00034155000000","APOAPSIS":"548.934","CENTER_NAME":"EARTH","ARG_OF_PERICENTER":"53.4671","ECCENTRICITY":"0.00023100","TIME_SYSTEM":"UTC","MEAN_MOTION_DOT":"-0.00005360","SEMIMAJOR_AXIS":"6925.469","OBJECT_ID":"2020-038C","COUNTRY_CODE":"US","TLE_LINE2":"2 45732  53.0547 283.4809 0002310  53.4671 306.6531 15.06360546 97054","OBJECT_TYPE":"PAYLOAD","OBJECT_NAME":"STARLINK-1466","TLE_LINE1":"1 45732U 20038C   22075.77791705 -.00005360  00000-0 -34155-3 0  9990","CLASSIFICATION_TYPE":"U","REF_FRAME":"TEME","MEAN_MOTION":"15.06360546","PERIAPSIS":"545.735","EPOCH":"2022-03-16T18:40:12.033120","MEAN_MOTION_DDOT":"0.0000000000000","MEAN_ELEMENT_THEORY":"SGP4"},{"CENTER_NAME":"EARTH","APOAPSIS":"548.300","GP_ID":"198919599","BSTAR":"0.00043045000000","FILE":"3362094","ELEMENT_SET_NO":"999","EPHEMERIS_TYPE":"0","MEAN_ANOMALY":"296.5378","PERIOD":"95.593","LAUNCH_DATE":"2020-06-13","DECAY_DATE":null,"SITE":"AFETR","RA_OF_ASC_NODE":"283.7590","NORAD_CAT_ID":"45733","INCLINATION":"53.0520","RCS_SIZE":"LARGE","REV_AT_EPOCH":"9704","MEAN_MOTION_DDOT":"0.0000000000000","MEAN_ELEMENT_THEORY":"SGP4","PERIAPSIS":"546.176","EPOCH":"2022-03-16T17:15:16.945632","MEAN_MOTION":"15.06391979","CLASSIFICATION_TYPE":"U","TLE_LINE1":"1 45733U 20038D   22075.71894613  .00006134  00000-0  43045-3 0  9993","REF_FRAME":"TEME","OBJECT_NAME":"STARLINK-1467","OBJECT_TYPE":"PAYLOAD","COUNTRY_CODE":"US","TLE_LINE2":"2 45733  53.0520 283.7590 0001534  63.5768 296.5378 15.06391979 97041","OBJECT_ID":"2020-038D","SEMIMAJOR_AXIS":"6925.373","ARG_OF_PERICENTER":"63.5768","ECCENTRICITY":"0.00015340","TIME_SYSTEM":"UTC","MEAN_MOTION_DOT":"0.00006134"},{"SEMIMAJOR_AXIS":"6925.442","ARG_OF_PERICENTER":"57.9848","TIME_SYSTEM":"UTC","ECCENTRICITY":"0.00018130","MEAN_MOTION_DOT":"-0.00003147","OBJECT_ID":"2020-038E","COUNTRY_CODE":"US","TLE_LINE2":"2 45734  53.0548 283.5330 0001813  57.9848 302.1317 15.06369591 97051","OBJECT_TYPE":"PAYLOAD","OBJECT_NAME":"STARLINK-1468","PERIAPSIS":"546.051","EPOCH":"2022-03-16T18:24:16.284096","MEAN_ELEMENT_THEORY":"SGP4","MEAN_MOTION_DDOT":"0.0000000000000","CLASSIFICATION_TYPE":"U","TLE_LINE1":"1 45734U 20038E   22075.76685514 -.00003147  00000-0 -19261-3 0  9993","REF_FRAME":"TEME","MEAN_MOTION":"15.06369591","RCS_SIZE":"LARGE","REV_AT_EPOCH":"9705","DECAY_DATE":null,"MEAN_ANOMALY":"302.1317","LAUNCH_DATE":"2020-06-13","PERIOD":"95.594","INCLINATION":"53.0548","NORAD_CAT_ID":"45734","SITE":"AFETR","RA_OF_ASC_NODE":"283.5330","GP_ID":"198919847","BSTAR":"-0.00019261000000","FILE":"3362094","APOAPSIS":"548.562","EPHEMERIS_TYPE":"0","ELEMENT_SET_NO":"999","CENTER_NAME":"EARTH"}];
